[{"OBJECT_NAME":"CHEOPS","OBJECT_ID":"2019-092B","EPOCH":"2026-03-09T21:50:28.376160","MEAN_MOTION":14.61888226,"ECCENTRICITY":0.00115482,"INCLINATION":98.1514,"RA_OF_ASC_NODE":258.5528,"ARG_OF_PERICENTER":54.8909,"MEAN_ANOMALY":305.3373,"EPHEMERIS_TYPE":0,"CLASSIFICATION_TYPE":"U","NORAD_CAT_ID":44874,"ELEMENT_SET_NO":999,"REV_AT_EPOCH":33139,"BSTAR":0.00010870283,"MEAN_MOTION_DOT":4.97e-6,"MEAN_MOTION_DDOT":0},{"OBJECT_NAME":"COSMOS 1174 DEB","OBJECT_ID":"1980-030K","EPOCH":"2026-03-09T19:16:08.602176","MEAN_MOTION":13.91535255,"ECCENTRICITY":0.04307717,"INCLINATION":66.4753,"RA_OF_ASC_NODE":241.413,"ARG_OF_PERICENTER":19.7566,"MEAN_ANOMALY":341.9633,"EPHEMERIS_TYPE":0,"CLASSIFICATION_TYPE":"U","NORAD_CAT_ID":11778,"ELEMENT_SET_NO":999,"REV_AT_EPOCH":27008,"BSTAR":0.00071366471,"MEAN_MOTION_DOT":1.846e-5,"MEAN_MOTION_DDOT":0}]
